{"type": "FeatureCollection", "features": [ {"type": "Feature", "properties": {"norad_id": 39122, "name": "EUTELSAT 117 WEST A", "group": "eutelsat", "lat": 0.013405475589669587, "lon": 131.62145388516274, "alt_km": 35794.165757739975, "timestamp": "2025-12-07T11:27:49.659368+00:00", "meta": {"OBJECT_NAME": "EUTELSAT 117 WEST A", "OBJECT_ID": "2013-012A", "EPOCH": "2025-12-06T21:40:18.179616", "MEAN_MOTION": 1.00269992, "ECCENTRICITY": 0.00031484, "INCLINATION": 0.0147, "RA_OF_ASC_NODE": 328.1698, "ARG_OF_PERICENTER": 288.1954, "MEAN_ANOMALY": 27.85, "EPHEMERIS_TYPE": 0, "CLASSIFICATION_TYPE": "U", "NORAD_CAT_ID": 39122, "ELEMENT_SET_NO": 999, "REV_AT_EPOCH": 4650, "BSTAR": 0, "MEAN_MOTION_DOT": -7e-08, "MEAN_MOTION_DDOT": 0}, "tle": {"line1": "1 39122U 13012A   25340.90298819 -.00000007  00000+0  00000+0 0  9990", "line2": "2 39122   0.0147 328.1698 0003148 288.1954  27.8500  1.00269992 46506"}}, "geometry": {"type": "Point", "coordinates": [131.62145388516274, 0.013405475589669587]}}, {"type": "Feature", "properties": {"norad_id": 39163, "name": "EUTELSAT 7B", "group": "eutelsat", "lat": -0.08657761041280787, "lon": -104.60791450729023, "alt_km": 35776.054225597654, "timestamp": "2025-12-07T11:27:49.659381+00:00", "meta": {"OBJECT_NAME": "EUTELSAT 7B", "OBJECT_ID": "2013-022A", "EPOCH": "2025-12-06T21:50:38.745024", "MEAN_MOTION": 1.0027059, "ECCENTRICITY": 0.00044774, "INCLINATION": 0.0691, "RA_OF_ASC_NODE": 8.8561, "ARG_OF_PERICENTER": 303.5544, "MEAN_ANOMALY": 98.1797, "EPHEMERIS_TYPE": 0, "CLASSIFICATION_TYPE": "U", "NORAD_CAT_ID": 39163, "ELEMENT_SET_NO": 999, "REV_AT_EPOCH": 4602, "BSTAR": 0, "MEAN_MOTION_DOT": 5.3e-07, "MEAN_MOTION_DDOT": 0}, "tle": {"line1": "1 39163U 13022A   25340.91017066  .00000053  00000+0  00000+0 0  9990", "line2": "2 39163   0.0691   8.8561 0004477 303.5544  98.1797  1.00270590 46021"}}, "geometry": {"type": "Point", "coordinates": [-104.60791450729023, -0.08657761041280787]}}, {"type": "Feature", "properties": {"norad_id": 39612, "name": "EXPRESS-AT1", "group": "eutelsat", "lat": -0.009020424612735063, "lon": -55.54302406767777, "alt_km": 35787.2106216481, "timestamp": "2025-12-07T11:27:49.659393+00:00", "meta": {"OBJECT_NAME": "EXPRESS-AT1", "OBJECT_ID": "2014-010A", "EPOCH": "2025-12-06T21:25:41.206656", "MEAN_MOTION": 1.00271881, "ECCENTRICITY": 5.368e-05, "INCLINATION": 0.0175, "RA_OF_ASC_NODE": 305.5558, "ARG_OF_PERICENTER": 236.3246, "MEAN_ANOMALY": 271.4673, "EPHEMERIS_TYPE": 0, "CLASSIFICATION_TYPE": "U", "NORAD_CAT_ID": 39612, "ELEMENT_SET_NO": 999, "REV_AT_EPOCH": 4289, "BSTAR": 0, "MEAN_MOTION_DOT": 8.4e-07, "MEAN_MOTION_DDOT": 0}, "tle": {"line1": "1 39612U 14010A   25340.89283804  .00000084  00000+0  00000+0 0  9993", "line2": "2 39612   0.0175 305.5558 0000536 236.3246 271.4673  1.00271881 42898"}}, "geometry": {"type": "Point", "coordinates": [-55.54302406767777, -0.009020424612735063]}}, {"type": "Feature", "properties": {"norad_id": 39613, "name": "EXPRESS-AT2", "group": "eutelsat", "lat": 0.027237884618788226, "lon": 28.315806298159757, "alt_km": 35788.0982445777, "timestamp": "2025-12-07T11:27:49.659406+00:00", "meta": {"OBJECT_NAME": "EXPRESS-AT2", "OBJECT_ID": "2014-010B", "EPOCH": "2025-12-06T21:10:43.513248", "MEAN_MOTION": 1.00269119, "ECCENTRICITY": 0.00014263, "INCLINATION": 0.0183, "RA_OF_ASC_NODE": 353.4523, "ARG_OF_PERICENTER": 293.5515, "MEAN_ANOMALY": 246.4476, "EPHEMERIS_TYPE": 0, "CLASSIFICATION_TYPE": "U", "NORAD_CAT_ID": 39613, "ELEMENT_SET_NO": 999, "REV_AT_EPOCH": 4257, "BSTAR": 0, "MEAN_MOTION_DOT": 0, "MEAN_MOTION_DDOT": 0}, "tle": {"line1": "1 39613U 14010B   25340.88244807  .00000000  00000+0  00000+0 0  9991", "line2": "2 39613   0.0183 353.4523 0001426 293.5515 246.4476  1.00269119 42574"}}, "geometry": {"type": "Point", "coordinates": [28.315806298159757, 0.027237884618788226]}}, {"type": "Feature", "properties": {"norad_id": 39773, "name": "EUTELSAT 3B", "group": "eutelsat", "lat": -0.07930781014207414, "lon": -108.43283934968893, "alt_km": 35767.311696279896, "timestamp": "2025-12-07T11:27:49.659437+00:00", "meta": {"OBJECT_NAME": "EUTELSAT 3B", "OBJECT_ID": "2014-030A", "EPOCH": "2025-12-06T21:58:38.690976", "MEAN_MOTION": 1.00271751, "ECCENTRICITY": 0.00047148, "INCLINATION": 0.0651, "RA_OF_ASC_NODE": 11.5729, "ARG_OF_PERICENTER": 219.942, "MEAN_ANOMALY": 177.1921, "EPHEMERIS_TYPE": 0, "CLASSIFICATION_TYPE": "U", "NORAD_CAT_ID": 39773, "ELEMENT_SET_NO": 999, "REV_AT_EPOCH": 4213, "BSTAR": 0, "MEAN_MOTION_DOT": 2.6e-07, "MEAN_MOTION_DDOT": 0}, "tle": {"line1": "1 39773U 14030A   25340.91572559  .00000026  00000+0  00000+0 0  9990", "line2": "2 39773   0.0651  11.5729 0004714 219.9420 177.1921  1.00271751 42133"}}, "geometry": {"type": "Point", "coordinates": [-108.43283934968893, -0.07930781014207414]}}, {"type": "Feature", "properties": {"norad_id": 40425, "name": "EUTELSAT 115 WEST B", "group": "eutelsat", "lat": -0.005044491166498544, "lon": 133.58191030117425, "alt_km": 35785.849379433195, "timestamp": "2025-12-07T11:27:49.659453+00:00", "meta": {"OBJECT_NAME": "EUTELSAT 115 WEST B", "OBJECT_ID": "2015-010B", "EPOCH": "2025-12-06T10:47:28.419072", "MEAN_MOTION": 1.00271104, "ECCENTRICITY": 3.126e-05, "INCLINATION": 0.007, "RA_OF_ASC_NODE": 143.6476, "ARG_OF_PERICENTER": 276.9333, "MEAN_ANOMALY": 61.9058, "EPHEMERIS_TYPE": 0, "CLASSIFICATION_TYPE": "U", "NORAD_CAT_ID": 40425, "ELEMENT_SET_NO": 999, "REV_AT_EPOCH": 3946, "BSTAR": 0, "MEAN_MOTION_DOT": -1.8e-07, "MEAN_MOTION_DDOT": 0}, "tle": {"line1": "1 40425U 15010B   25340.44963448 -.00000018  00000+0  00000+0 0  9996", "line2": "2 40425   0.0070 143.6476 0000312 276.9333  61.9058  1.00271104 39461"}}, "geometry": {"type": "Point", "coordinates": [133.58191030117425, -0.005044491166498544]}}, {"type": "Feature", "properties": {"norad_id": 40875, "name": "EUTELSAT 8 WEST B", "group": "eutelsat", "lat": -0.08214689322687516, "lon": -119.55247373374104, "alt_km": 35769.42881236478, "timestamp": "2025-12-07T11:27:49.659466+00:00", "meta": {"OBJECT_NAME": "EUTELSAT 8 WEST B", "OBJECT_ID": "2015-039B", "EPOCH": "2025-12-06T22:06:38.876256", "MEAN_MOTION": 1.00271351, "ECCENTRICITY": 0.00041371, "INCLINATION": 0.0645, "RA_OF_ASC_NODE": 355.0916, "ARG_OF_PERICENTER": 262.1587, "MEAN_ANOMALY": 142.3766, "EPHEMERIS_TYPE": 0, "CLASSIFICATION_TYPE": "U", "NORAD_CAT_ID": 40875, "ELEMENT_SET_NO": 999, "REV_AT_EPOCH": 3772, "BSTAR": 0, "MEAN_MOTION_DOT": -6e-07, "MEAN_MOTION_DDOT": 0}, "tle": {"line1": "1 40875U 15039B   25340.92128329 -.00000060  00000+0  00000+0 0  9997", "line2": "2 40875   0.0645 355.0916 0004137 262.1587 142.3766  1.00271351 37724"}}, "geometry": {"type": "Point", "coordinates": [-119.55247373374104, -0.08214689322687516]}}, {"type": "Feature", "properties": {"norad_id": 41310, "name": "EUTELSAT 9B", "group": "eutelsat", "lat": -0.0260505785401636, "lon": -102.5608880507911, "alt_km": 35764.863254087155, "timestamp": "2025-12-07T11:27:49.659478+00:00", "meta": {"OBJECT_NAME": "EUTELSAT 9B", "OBJECT_ID": "2016-005A", "EPOCH": "2025-12-06T21:50:38.745024", "MEAN_MOTION": 1.00272556, "ECCENTRICITY": 0.0005029, "INCLINATION": 0.0751, "RA_OF_ASC_NODE": 75.8515, "ARG_OF_PERICENTER": 191.9577, "MEAN_ANOMALY": 144.7914, "EPHEMERIS_TYPE": 0, "CLASSIFICATION_TYPE": "U", "NORAD_CAT_ID": 41310, "ELEMENT_SET_NO": 999, "REV_AT_EPOCH": 3618, "BSTAR": 0, "MEAN_MOTION_DOT": 6.8e-07, "MEAN_MOTION_DDOT": 0}, "tle": {"line1": "1 41310U 16005A   25340.91017066  .00000068  00000+0  00000+0 0  9997", "line2": "2 41310   0.0751  75.8515 0005029 191.9577 144.7914  1.00272556 36186"}}, "geometry": {"type": "Point", "coordinates": [-102.5608880507911, -0.0260505785401636]}}, {"type": "Feature", "properties": {"norad_id": 41382, "name": "EUTELSAT 65 WEST A", "group": "eutelsat", "lat": -0.01453732509542216, "lon": -176.7991562836576, "alt_km": 35785.05893816092, "timestamp": "2025-12-07T11:27:49.659490+00:00", "meta": {"OBJECT_NAME": "EUTELSAT 65 WEST A", "OBJECT_ID": "2016-014A", "EPOCH": "2025-12-06T21:54:54.279936", "MEAN_MOTION": 1.00269506, "ECCENTRICITY": 0.00028768, "INCLINATION": 0.0494, "RA_OF_ASC_NODE": 356.1689, "ARG_OF_PERICENTER": 268.9659, "MEAN_ANOMALY": 74.3245, "EPHEMERIS_TYPE": 0, "CLASSIFICATION_TYPE": "U", "NORAD_CAT_ID": 41382, "ELEMENT_SET_NO": 999, "REV_AT_EPOCH": 3560, "BSTAR": 0, "MEAN_MOTION_DOT": -2.71e-06, "MEAN_MOTION_DDOT": 0}, "tle": {"line1": "1 41382U 16014A   25340.91312824 -.00000271  00000+0  00000+0 0  9993", "line2": "2 41382   0.0494 356.1689 0002876 268.9659  74.3245  1.00269506 35601"}}, "geometry": {"type": "Point", "coordinates": [-176.7991562836576, -0.01453732509542216]}}, {"type": "Feature", "properties": {"norad_id": 41589, "name": "EUTELSAT 117 WEST B", "group": "eutelsat", "lat": -0.008334303423699901, "lon": 131.44724639140907, "alt_km": 35785.345929461204, "timestamp": "2025-12-07T11:27:49.659502+00:00", "meta": {"OBJECT_NAME": "EUTELSAT 117 WEST B", "OBJECT_ID": "2016-038B", "EPOCH": "2025-12-06T21:40:10.692192", "MEAN_MOTION": 1.00270331, "ECCENTRICITY": 3.265e-05, "INCLINATION": 0.0031, "RA_OF_ASC_NODE": 151.3516, "ARG_OF_PERICENTER": 304.7129, "MEAN_ANOMALY": 187.9125, "EPHEMERIS_TYPE": 0, "CLASSIFICATION_TYPE": "U", "NORAD_CAT_ID": 41589, "ELEMENT_SET_NO": 999, "REV_AT_EPOCH": 3473, "BSTAR": 0, "MEAN_MOTION_DOT": -6e-08, "MEAN_MOTION_DDOT": 0}, "tle": {"line1": "1 41589U 16038B   25340.90290153 -.00000006  00000+0  00000+0 0  9993", "line2": "2 41589   0.0031 151.3516 0000326 304.7129 187.9125  1.00270331 34739"}}, "geometry": {"type": "Point", "coordinates": [131.44724639140907, -0.008334303423699901]}}]}